ORBCOMM FM33            
1 25983U 99065D   24134.62476906  .00003122  00000+0  10752-2 0  9994
2 25983  45.0283  95.2276 0008339 223.1831 306.5123 14.37695831278515
ORBCOMM FM36            
1 25984U 99065E   24134.84489148  .00002180  00000+0  79826-3 0  9992
2 25984  45.0377 179.7440 0001170  96.5431 263.5550 14.35593052276980
ORBCOMM FM35            
1 25985U 99065F   24134.81819084  .00002220  00000+0  81887-3 0  9991
2 25985  45.0376 182.5298 0004440 224.8351 135.2138 14.35163970277376
ORBCOMM FM34            
1 25986U 99065G   24134.85830567  .00001847  00000+0  68984-3 0  9992
2 25986  45.0373 182.8757 0002984 178.1632 181.9227 14.35132244277491
ORBCOMM FM38            
1 33060U 08031A   24135.15056579  .00004061  00000+0  59112-3 0  9998
2 33060  48.4414  51.5282 0005277 131.5792 228.5575 14.77564210855651
ORBCOMM FM41            
1 33061U 08031B   24135.22681649  .00003969  00000+0  58198-3 0  9998
2 33061  48.4449  57.7966 0004356 116.8103  42.5044 14.77292318855614
ORBCOMM FM29            
1 33062U 08031C   24134.85136344  .00004103  00000+0  60158-3 0  9994
2 33062  48.4397  67.6103 0006185 112.4599 269.3968 14.77222886855429
ORBCOMM FM39            
1 33063U 08031D   24134.61187569  .00004356  00000+0  65177-3 0  9990
2 33063  48.4405  89.2835 0007060  84.5730 275.5988 14.76222097854693
